#dP2021  3 15 18  0  0.00000000      96 __u+U ITR00 EXT  IAC
## 2149 151200.00000000   900.00000000 59288 0.7500000000000
+  116   C06C07C08C09C10C11C12C13C14C16C19C20C21C22C23C24C25
+        C26C27C28C29C30C32C33C34C35C36C37C38C39C40C41C42C43
+        C44C45C46E01E02E03E04E05E07E08E09E11E12E13E14E15E18
+        E19E21E24E25E26E27E30E31E33G01G02G03G04G05G06G07G08
+        G09G10G11G12G13G14G15G16G17G18G19G20G21G22G23G24G25
+        G26G27G28G29G30G31G32J01J02J03R01R02R03R04R05R07R08
+        R09R11R12R13R14R15R16R17R18R19R20R21R22R24  0  0  0
++         9 10  9 10 10 10  8 10 10 10  9  8 10  8  9  9  8
++         9  9  9  8  8 10 10  8 10 10  9 11  9 10  9 10 11
++        11  9  9  8  8  9  9  9  9  9  7  7  9  7  8  9 10
++         9  7  8  9  7  9  8  7  8  7  8  8  8  7  8  8  7
++         8  8  8  7  9  7  9  8  7  7  7  7  7  7  7  7  7
++         8  8  8  9  8  8  9 13 10 10 10  8  9  9  9  9 10
++         9 10  8  8  8  9  9  9  8 10  9  9  8  9  0  0  0
%c M  cc GPS ccc cccc cccc cccc cccc ccccc ccccc ccccc ccccc
%c cc cc ccc ccc cccc cccc cccc cccc ccccc ccccc ccccc ccccc
%f  0.0000000  0.000000000  0.00000000000  0.000000000000000
%f  0.0000000  0.000000000  0.00000000000  0.000000000000000
%i    0    0    0    0      0      0      0      0         0
%i    0    0    0    0      0      0      0      0         0
/* IAC                                ULTRA-RAPID PREDICTION
/* S/V CLOCKS ARE ALIGNED TO GNSS TIME                      
/* G:C1WC2W R:C1PC2P E:C1XC5X C:C2IC6I J:C1CC2S             
/* PCV:IGS14_2134 OL/AL:FES2004  NONE     YN ORB:CoN CLK:CoN
*  2021 03 16 13 15  0.00000000
PC06 -23201.860465  24031.379818 -25553.173864    182.580368
PC07 -15854.178662  37552.773320  -9408.700811    -22.988896
PC08  -6334.026879  22911.031490  35003.119015   -900.172688
PC09  -7188.599025  25106.365229 -32899.185943    664.568335
PC10  -5725.726538  41400.878724   3473.695701    -70.900375
PC11   7392.071390 -15140.109062 -22189.814543   -865.620985
PC12  23967.511548  -9261.901225 -10866.398793    869.112759
PC13   6564.056433  31314.666457  27694.971379    182.453914
PC14   8513.213252 -26270.595838   4249.038244    224.931222
PC16 -18433.288439  24842.264209 -28630.129075   -737.237702
PC19  -1228.834415  24685.066341 -12911.272132    763.643568
PC20 -13580.074304  24078.737195   3721.439269   -930.896513
PC21  18418.446685  -9042.746415 -18901.320660   -887.973231
PC22  12219.632866  10955.309549 -22558.811124   -919.141829
PC23 -19495.755989 -18600.572992  -7251.734230   -878.044669
PC24   7863.396974 -15715.023729  21659.316372   -784.507831
PC25  -9463.623065 -24350.507333   9773.004494   -947.641394
PC26  18840.327569    725.890023  20574.214466    934.623179
PC27 -27619.623358   3598.497862   1894.859423    499.542765
PC28 -22030.875796  -8475.209257 -14880.596904    -97.789063
PC29   4145.598779  15429.626572  22873.840685    365.733539
PC30 -16939.334856  14026.587161  17190.493990    452.785484
PC32 -18370.019374   9119.423731  18939.521303   -913.863170
PC33   1118.314165 -24745.786656  12877.835178   -946.842468
PC34  16264.056207 -14247.740239 -17632.934285   -717.755091
PC35  22068.810368   7941.141745  15088.349973   -372.123340
PC36   8645.921890  24548.124429 -10055.117266   -741.249686
PC37 -19108.576927  -1993.299204 -20220.758105   -877.384098
PC38  -4846.277866  26365.490378  32603.136445    136.157054
PC39 -16489.406051  26086.422450 -28785.802469     29.410829
PC40 -11910.732787  40323.294141   1954.018945    141.482105
PC41 -12148.705566 -11236.002674  22521.037054   -932.705407
PC42  13882.527341 -23824.163330  -4295.386308   -943.643454
PC43  -3566.726424 -15649.523750 -22833.738608   -642.063226
PC44  27479.460618  -4418.880813  -1721.573460     88.694620
PC45  19534.474489  18544.251515   7342.116151    388.208877
PC46  -6962.827617  16426.828047 -21466.247754    360.368761
PE01  16847.662042   7932.711803  23006.475948  -1066.728096
PE02 -16858.094879  -7768.240789 -23058.029262    205.411374
PE03 -23088.410369   1801.670924  18429.324670   -409.512691
PE04  23969.132895 -17227.392574  -2195.674441   -730.100036
PE05  -8642.593144 -14901.823593  24074.664682   -296.592239
PE07 -10701.756433  22744.114394 -15618.500849   -513.473645
PE08 -23765.477834  17532.091786   1920.901825   6032.326317
PE09  10502.763844 -22725.270977  15809.205714   5732.924212
PE11   1052.273575 -16698.052909 -24422.467421   6201.005233
PE12  21117.189736  -5898.508605 -19868.646307   5307.488234
PE13  -1483.642640  16485.867925  24547.290887    413.624537
PE14 -25231.821567   7461.986527  -3882.707491  -1363.752950
PE15 -21077.928314   5931.482651  19933.706911    824.372268
PE18  22123.681950 -18609.280572 -10597.675855  -1491.311947
PE19  21967.894780    151.822957 -19829.947279    228.243252
PE21  11198.476684  25192.402910  10779.965240   -653.926929
PE24   1790.428407 -28211.004298   8717.660844   -795.764816
PE25 -11108.327251 -25290.688400 -10625.503514   -528.599878
PE26  19449.865600  17336.418986  14052.159289   2035.478502
PE27  -1173.181488  28452.860356  -8104.593624      9.244963
PE30 -13259.520231  14076.149563 -22428.711551   3102.446241
PE31  12782.990521 -14958.846021  22112.953897   -479.225922
PE33  28233.180773   8107.924137  -3580.678247   -466.587553
PG01 -22399.268621 -14614.545146    292.107514    739.905794
PG02   5782.803706  18296.243748  19007.591599   -586.660456
PG03 -12918.790621 -12196.112802  19698.151833   -109.656329
PG04 -18550.190588  -5409.248059  18253.177036   -186.508748
PG05   4698.751733  25057.806382  -7255.573341    -36.377985
PG06  -7605.797733  12654.395863  22142.053218      1.163313
PG07 -22925.135441  -4219.026583 -12833.573132     91.731287
PG08 -11941.975597 -10330.073110 -21398.975757    -13.947447
PG09 -24111.954972   4700.093665  10066.026051   -331.517581
PG10  11701.310224 -17700.557298 -15693.228950    -82.170268
PG11 -21828.849652 -10475.220416 -10944.366115      2.703934
PG12  10186.942635  16566.150300  17909.033250    -14.720188
PG13   1267.141163  15395.104366 -21727.599494    108.494307
PG14 -13158.445202  16294.657786 -16337.188397     99.843085
PG15  13715.008787   9715.377153 -20979.740710   -162.752884
PG16     36.355579 -25806.303867  -5369.925061   -294.884662
PG17 -21437.414146  14307.829870   6833.905457    410.606304
PG18  21180.305277   1057.278837 -16033.239576    350.608811
PG19 -16308.875842  15826.718197  13382.327100    -25.618134
PG20  15357.439549  -3926.633069 -21292.364969    524.147762
PG21 -20024.086911 -16269.348115  -6501.596458    103.575565
PG22 -11022.917324 -20147.520032  13689.811791   -659.246776
PG23  14817.685986  -6609.121565 -21040.674098    117.362945
PG24  20750.636808  16105.109494  -5401.810271      1.004701
PG25  15008.906265   1610.140706  21596.739611     99.936662
PG26   4432.733894 -25398.516822   5715.271632     58.852441
PG27   1173.428144 -16442.856905 -20904.124166    -95.049841
PG28 -12282.064825  18757.778422 -13826.567700    601.304240
PG29  24482.216856  -3266.062603   9778.203794   -312.857486
PG30 -15670.340569   7223.602320 -20196.913064   -399.241805
PG31   5616.556579 -14479.103375  21421.348811   -105.925869
PG32  19664.181963 -16112.366533   7483.391464     21.258932
PJ01 -33072.707069  25690.080355   9962.573501   -355.544159
PJ02 -19829.943741  25368.481263 -22741.668078      3.471588
PJ03 -30600.719769  25199.453086  19393.992574     -1.827939
PR01 -16897.757848  14272.354600  12697.935189     76.484995
PR02 -10750.542088  21732.334322  -7976.761202    470.979455
PR03   1888.406208  14584.739610 -20810.793536     32.498642
PR04  13108.839498   -866.403770 -21833.571957     78.143074
PR05  17100.768870 -15659.663207 -10591.507691     68.257454
PR07  -2465.003126 -14041.665830  21180.699533    -42.553509
PR08 -13256.007940    837.135399  21838.104909    -57.953932
PR09  -1890.597704 -20707.979046  14834.286535    -16.844125
PR11 -14764.061294 -11792.246900 -17133.650489      2.239899
PR12  -9078.418616   6380.628713 -22948.779641    213.031383
PR13   1700.294718  20296.992246 -15380.204600    -52.074169
PR14  11702.091025  22584.898654   1849.252253     62.074671
PR15  14639.739656  11589.829436  17394.966833    104.891387
PR16   8658.238527  -7441.844040  22773.804869    -12.577410
PR17  12926.666470  10084.530741  19563.580195    408.472136
PR18  24291.498144   4963.973358   5879.625139     69.981766
PR19  23249.627430  -1830.611498 -10325.907825   -135.929231
PR20   6948.767293  -9300.108016 -22696.017465    -45.349038
PR21 -13976.326759  -9855.115676 -18915.877884   -194.792396
PR22 -24693.077871  -4609.801114  -4748.093600   -102.895656
PR24  -6133.624811  10016.542988  22661.341849     35.218216
EOF
